[
    {
        "Altitude(m)": 610399.5348775173,
        "Argument of Periapsis(deg)": 0.0,
        "Eccentricity": 0.0,
        "Inclination(deg)": 60.0,
        "Latitude(deg)": 52.1113516055575,
        "Longitude(deg)": -167.41557387225765,
        "Mean Anomaly(deg)": 65.45449999999998,
        "RAAN(deg)": 245.0,
        "Satellite Name": "Test1 1082",
        "Satellite Number": 1082,
        "Semi-Major Axis(m)": 6980739.136638005,
        "Time(s)": 0
    },
    {
        "Altitude(m)": 610481.6854796,
        "Argument of Periapsis(deg)": 0.00010418945913296404,
        "Eccentricity": 0.0,
        "Inclination(deg)": 60.0,
        "Latitude(deg)": 52.470952572749525,
        "Longitude(deg)": -166.63343579840313,
        "Mean Anomaly(deg)": 66.07460614546183,
        "RAAN(deg)": 244.99957995086027,
        "Satellite Name": "Test1 1082",
        "Satellite Number": 1082,
        "Semi-Major Axis(m)": 6980739.136638005,
        "Time(s)": 10
    }
]